NORAD_CAT_ID,OBJECT_NAME,OBJECT_TYPE,EPOCH,MEAN_MOTION,ECCENTRICITY,INCLINATION,RA_OF_ASC_NODE,ARG_OF_PERICENTER,MEAN_ANOMALY,BSTAR,MEAN_MOTION_DOT,MEAN_MOTION_DDOT,TLE_LINE0,TLE_LINE1,TLE_LINE2,SEMIMAJOR_AXIS,PERIOD,APOGEE,PERIGEE,DECAYED
53589.0,STARLINK-4673,PAYLOAD,2023-02-23 20:01:17,15.08858886,0.0001166,53.2159,186.5065,95.3024,264.8101,0.0011524,0.00018109,0.0,0 STARLINK-4673,1 53589U 22104B   23054.83422526  .00018109  00000-0  11524-2 0  9999,2 53589  53.2159 186.5065 0001166  95.3024 264.8101 15.08858886 28396,6917.823,95.436,540.494,538.881,0.0
53589.0,STARLINK-4673,PAYLOAD,2023-02-24 11:55:09,15.08839436,0.0001124,53.2169,183.5346,78.8954,281.2164,0.00078104,0.00012164,0.0,0 STARLINK-4673,1 53589U 22104B   23055.49663226  .00012164  00000-0  78104-3 0  9999,2 53589  53.2169 183.5346 0001124  78.8954 281.2164 15.08839436 28491,6917.882,95.438,540.525,538.97,0.0
53589.0,STARLINK-4673,PAYLOAD,2023-02-24 13:30:32,15.08847341,0.0001049,53.2167,183.2368,83.966,276.1452,0.00078008,0.00012151,0.0,0 STARLINK-4673,1 53589U 22104B   23055.56287088  .00012151  00000-0  78008-3 0  9994,2 53589  53.2167 183.2368 0001049  83.9660 276.1452 15.08847341 27482,6917.858,95.437,540.449,538.997,0.0
53589.0,STARLINK-4673,PAYLOAD,2023-02-24 19:52:04,15.08852636,0.0001156,53.2168,182.0477,86.7229,273.3896,0.0012464,0.00019611,0.0,0 STARLINK-4673,1 53589U 22104B   23055.82783022  .00019611  00000-0  12464-2 0  9993,2 53589  53.2168 182.0477 0001156  86.7229 273.3896 15.08852636 28544,6917.842,95.437,540.506,538.907,0.0
53589.0,STARLINK-4673,PAYLOAD,2023-02-25 11:45:56,15.08839545,0.0001229,53.2168,179.0731,96.5876,263.5256,0.0010187,0.00015962,0.0,0 STARLINK-4673,1 53589U 22104B   23056.49023693  .00015962  00000-0  10187-2 0  9993,2 53589  53.2168 179.0731 0001229  96.5876 263.5256 15.08839545 27624,6917.882,95.438,540.597,538.897,0.0
53589.0,STARLINK-4673,PAYLOAD,2023-02-25 13:21:19,15.08842846,0.0001268,53.2169,178.7761,91.9231,268.1907,0.0012441,0.00019569,0.0,0 STARLINK-4673,1 53589U 22104B   23056.55647707  .00019569  00000-0  12441-2 0  9990,2 53589  53.2169 178.7761 0001268  91.9231 268.1907 15.08842846 28657,6917.872,95.437,540.614,538.86,0.0
53589.0,STARLINK-4673,PAYLOAD,2023-02-25 19:42:52,15.08855044,0.0001217,53.2169,177.5863,82.4571,277.656,0.0016987,0.00026861,0.0,0 STARLINK-4673,1 53589U 22104B   23056.82143586  .00026861  00000-0  16987-2 0  9998,2 53589  53.2169 177.5863 0001217  82.4571 277.6560 15.08855044 28691,6917.834,95.437,540.541,538.858,0.0
53589.0,STARLINK-4673,PAYLOAD,2023-02-26 00:29:01,15.08843147,0.0001037,53.2175,176.6942,84.1818,275.9292,0.0010289,0.00016126,0.0,0 STARLINK-4673,1 53589U 22104B   23057.02015713  .00016126  00000-0  10289-2 0  9993,2 53589  53.2175 176.6942 0001037  84.1818 275.9292 15.08843147 27704,6917.871,95.437,540.453,539.018,0.0
53589.0,STARLINK-4673,PAYLOAD,2023-02-26 11:36:43,15.08867414,0.0001271,53.2172,174.6131,65.9651,294.1474,0.0019903,0.00031554,0.0,0 STARLINK-4673,1 53589U 22104B   23057.48383376  .00031554  00000-0  19903-2 0  9990,2 53589  53.2172 174.6131 0001271  65.9651 294.1474 15.08867414 28799,6917.797,95.436,540.541,538.782,0.0
53589.0,STARLINK-4673,PAYLOAD,2023-02-26 14:47:29,15.08879951,0.0001342,53.2171,174.0183,67.5176,292.5958,0.0024482,0.00038933,0.0,0 STARLINK-4673,1 53589U 22104B   23057.61631053  .00038933  00000-0  24482-2 0  9999,2 53589  53.2171 174.0183 0001342  67.5176 292.5958 15.08879951 27795,6917.758,95.435,540.552,538.695,0.0
53589.0,STARLINK-4673,PAYLOAD,2023-02-26 19:33:38,15.08892278,0.0001383,53.2172,173.1256,69.5537,290.5603,0.0022346,0.00035506,0.0,0 STARLINK-4673,1 53589U 22104B   23057.81502427  .00035506  00000-0  22346-2 0  9993,2 53589  53.2172 173.1256 0001383  69.5537 290.5603 15.08892278 28844,6917.721,95.434,540.542,538.629,0.0
53589.0,STARLINK-4673,PAYLOAD,2023-02-27 00:19:47,15.08830279,8.76e-05,53.2174,172.2339,117.3509,242.7573,-0.0020298,-0.00032438,0.0,0 STARLINK-4673,1 53589U 22104B   23058.01374664 -.00032438  00000-0 -20298-2 0  9993,2 53589  53.2174 172.2339 0000876 117.3509 242.7573 15.08830279 27853,6917.91,95.438,540.381,539.169,0.0
53589.0,STARLINK-4673,PAYLOAD,2023-02-27 17:49:02,15.08927841,0.0001306,53.2168,168.9614,86.9869,273.1272,0.0070023,0.00113221,0.0,0 STARLINK-4673,1 53589U 22104B   23058.74238515  .00113221  00000-0  70023-2 0  9996,2 53589  53.2168 168.9614 0001306  86.9869 273.1272 15.08927841 27961,6917.612,95.432,540.38,538.573,0.0
53589.0,STARLINK-4673,PAYLOAD,2023-02-28 00:10:35,15.08847746,0.0002081,53.2164,167.7739,70.3093,289.8123,0.0014143,0.00022297,0.0,0 STARLINK-4673,1 53589U 22104B   23059.00735532  .00022297  00000-0  14143-2 0  9990,2 53589  53.2164 167.7739 0002081  70.3093 289.8123 15.08847746 28009,6917.857,95.437,541.161,538.282,0.0
53589.0,STARLINK-4673,PAYLOAD,2023-02-28 12:53:41,15.08807708,0.0001374,53.2162,165.3947,66.3923,293.7213,0.0021866,0.00034652,0.0,0 STARLINK-4673,1 53589U 22104B   23059.53728774  .00034652  00000-0  21866-2 0  9996,2 53589  53.2162 165.3947 0001374  66.3923 293.7213 15.08807708 29103,6917.979,95.44,540.795,538.894,0.0
53589.0,STARLINK-4673,PAYLOAD,2023-02-28 14:29:04,15.08816779,0.0001256,53.2161,165.0973,68.6807,291.4319,0.0015331,0.0002418,0.0,0 STARLINK-4673,1 53589U 22104B   23059.60352766  .00024180  00000-0  15331-2 0  9993,2 53589  53.2161 165.0973 0001256  68.6807 291.4319 15.08816779 28090,6917.951,95.439,540.685,538.947,0.0
53589.0,STARLINK-4673,PAYLOAD,2023-02-28 19:15:14,15.08827443,0.000132,53.2161,164.2045,65.1597,294.9532,0.0023663,0.0003756,0.0,0 STARLINK-4673,1 53589U 22104B   23059.80225097  .00037560  00000-0  23663-2 0  9994,2 53589  53.2161 164.2045 0001320  65.1597 294.9532 15.08827443 29143,6917.919,95.438,540.697,538.871,0.0
53589.0,STARLINK-4673,PAYLOAD,2023-03-01 00:01:24,15.08818343,0.0001348,53.2158,163.3162,70.8763,289.2375,0.0013453,0.00021175,0.0,0 STARLINK-4673,1 53589U 22104B   23060.00097646  .00021175  00000-0  13453-2 0  9996,2 53589  53.2158 163.3162 0001348  70.8763 289.2375 15.08818343 28158,6917.947,95.439,540.744,538.879,0.0
53589.0,STARLINK-4673,PAYLOAD,2023-03-01 12:44:30,15.08827391,0.0001576,53.2161,160.9384,70.5818,289.5345,0.00079228,0.00012339,0.0,0 STARLINK-4673,1 53589U 22104B   23060.53090356  .00012339  00000-0  79228-3 0  9990,2 53589  53.2161 160.9384 0001576  70.5818 289.5345 15.08827391 28234,6917.919,95.438,540.874,538.694,0.0
53589.0,STARLINK-4673,PAYLOAD,2023-03-01 19:06:02,15.08843103,0.0001575,53.2156,159.7466,73.2887,286.8277,0.0010788,0.00016924,0.0,0 STARLINK-4673,1 53589U 22104B   23060.79586233  .00016924  00000-0  10788-2 0  9991,2 53589  53.2156 159.7466 0001575  73.2887 286.8277 15.08843103 29290,6917.871,95.437,540.825,538.646,0.0
53589.0,STARLINK-4673,PAYLOAD,2023-03-01 23:52:11,15.08856299,0.000149,53.2157,158.8541,73.1142,287.0013,0.0012675,0.00019951,0.0,0 STARLINK-4673,1 53589U 22104B   23060.99457927  .00019951  00000-0  12675-2 0  9990,2 53589  53.2157 158.8541 0001490  73.1142 287.0013 15.08856299 28306,6917.831,95.437,540.726,538.665,0.0
53589.0,STARLINK-4673,PAYLOAD,2023-03-02 12:35:15,15.08896102,0.000152,53.2164,156.4748,69.8228,290.2927,0.0016688,0.00026412,0.0,0 STARLINK-4673,1 53589U 22104B   23061.52448327  .00026412  00000-0  16688-2 0  9992,2 53589  53.2164 156.4748 0001520  69.8228 290.2927 15.08896102 28383,6917.709,95.434,540.625,538.522,0.0
53589.0,STARLINK-4673,PAYLOAD,2023-03-03 06:04:28,15.0888369,0.0001508,53.2167,153.2023,118.6919,241.4225,0.002321,0.00036889,0.0,0 STARLINK-4673,1 53589U 22104B   23062.25311304  .00036889  00000-0  23210-2 0  9995,2 53589  53.2167 153.2023 0001508 118.6919 241.4225 15.08883690 28492,6917.747,95.435,540.655,538.569,0.0
53589.0,STARLINK-4673,PAYLOAD,2023-03-03 10:50:38,15.08872592,0.0001199,53.218,152.3081,106.4241,253.6883,0.00044721,6.843e-05,0.0,0 STARLINK-4673,1 53589U 22104B   23062.45182971  .00006843  00000-0  44721-3 0  9991,2 53589  53.2180 152.3081 0001199 106.4241 253.6883 15.08872592 28528,6917.781,95.435,540.475,538.816,0.0
53589.0,STARLINK-4673,PAYLOAD,2023-03-03 17:12:10,15.08882018,0.0001361,53.2178,151.1177,116.6438,243.4693,0.00093372,0.0001462,0.0,0 STARLINK-4673,1 53589U 22104B   23062.71678310  .00014620  00000-0  93372-3 0  9995,2 53589  53.2178 151.1177 0001361 116.6438 243.4693 15.08882018 29587,6917.752,95.435,540.558,538.675,0.0
53589.0,STARLINK-4673,PAYLOAD,2023-03-04 10:41:25,15.08831981,0.0001494,53.2179,147.8519,96.2757,263.8405,0.00062356,9.648e-05,0.0,0 STARLINK-4673,1 53589U 22104B   23063.44543733  .00009648  00000-0  62356-3 0  9998,2 53589  53.2179 147.8519 0001494  96.2757 263.8405 15.08831981 28673,6917.905,95.438,540.803,538.736,0.0
53589.0,STARLINK-4673,PAYLOAD,2023-03-04 17:02:57,15.08864376,0.0001526,53.2174,146.6602,121.0281,239.0861,0.0016281,0.00025736,0.0,0 STARLINK-4673,1 53589U 22104B   23063.71039178  .00025736  00000-0  16281-2 0  9992,2 53589  53.2174 146.6602 0001526 121.0281 239.0861 15.08864376 28713,6917.806,95.436,540.727,538.615,0.0
53589.0,STARLINK-4673,PAYLOAD,2023-03-05 21:39:55,15.08854554,0.0001283,53.2177,141.3084,95.0299,265.084,0.0016425,0.00025959,0.0,0 STARLINK-4673,1 53589U 22104B   23064.90272487  .00025959  00000-0  16425-2 0  9993,2 53589  53.2177 141.3084 0001283  95.0299 265.0840 15.08854554 28893,6917.836,95.437,540.588,538.813,0.0
53589.0,STARLINK-4673,PAYLOAD,2023-03-06 05:36:51,15.08855738,0.0001715,53.2173,139.8235,105.6287,254.4895,0.0010527,0.00016513,0.0,0 STARLINK-4673,1 53589U 22104B   23065.23392395  .00016513  00000-0  10527-2 0  9994,2 53589  53.2173 139.8235 0001715 105.6287 254.4895 15.08855738 28947,6917.832,95.437,540.884,538.511,0.0
53589.0,STARLINK-4673,PAYLOAD,2023-03-06 15:09:08,15.08884704,0.0001418,53.2182,138.0394,102.4875,257.6276,0.0016158,0.00025553,0.0,0 STARLINK-4673,1 53589U 22104B   23065.63135332  .00025553  00000-0  16158-2 0  9994,2 53589  53.2182 138.0394 0001418 102.4875 257.6276 15.08884704 29003,6917.744,95.435,540.59,538.628,0.0
